VLADIVOSTOK-1
1 61751U 24199S   25098.21103236  .00012987  00000-0  47445-3 0  9991
2 61751  97.3658 326.9556 0013454  60.4872 299.7707 15.28146969 70537
SITRO-AIS-14
1 61752U 24199T   25098.19477762  .00005245  00000-0  48988-3 0  9999
2 61752  97.3680 319.5619 0008187  94.4051 265.8106 14.94528768 70084
HORS-3 (RS81S)
1 61753U 24199U   25098.18796709  .00026794  00000-0  88108-3 0  9994
2 61753  97.3646 327.2770 0012503  59.0498 301.1971 15.31431255 70541
HORS-4 (RS82S)
1 61754U 24199V   25098.15386615  .00027552  00000-0  88884-3 0  9997
2 61754  97.3642 327.3176 0012651  59.8967 300.3527 15.32039727 70549
SITRO-AIS-43
1 61755U 24199W   25098.16147861  .00030680  00000-0  95989-3 0  9997
2 61755  97.3645 327.4622 0011457  58.9432 301.2934 15.33012329 70553
SITRO-AIS-42
1 61756U 24199X   25098.15964136  .00030678  00000-0  95895-3 0  9992
2 61756  97.3645 327.4653 0011478  59.3240 300.9132 15.33040610 70553
HORIZON (RS59S)
1 61757U 24199Y   25098.18796888  .00037777  00000-0  11366-2 0  9990
2 61757  97.3667 327.6275 0012863  49.9912 310.2457 15.34194101 70561
SITRO-AIS-20
1 61758U 24199Z   25098.17883640  .00005264  00000-0  48909-3 0  9993
2 61758  97.3684 319.5771 0008190  96.0608 264.1547 14.94737254 70086
SITRO-AIS-19
1 61759U 24199AA  25098.17693840  .00005159  00000-0  47958-3 0  9991
2 61759  97.3685 319.5805 0008149  97.3102 262.9046 14.94728171 70081
SITRO-AIS-41
1 61760U 24199AB  25098.17044974  .00031064  00000-0  97845-3 0  9995
2 61760  97.3649 327.4548 0011436  59.9149 300.3225 15.32795763 70555
2024-199AC
1 61761U 24199AC  25098.20166136  .00026640  00000-0  86100-3 0  9991
2 61761  97.3645 327.4090 0011397  60.7206 299.5173 15.32001499 70551
ARCTICSAT-1 (RS74S)
1 61762U 24199AD  25098.17055104  .00036507  00000-0  10990-2 0  9996
2 61762  97.3667 327.6481 0012846  48.6836 311.5510 15.34184110 70561
SIT-HSE
1 61763U 24199AE  25098.22317439  .00029900  00000-0  93725-3 0  9992
2 61763  97.3647 327.5343 0011262  59.9047 300.3311 15.32959241 70564
SIT-2086
1 61764U 24199AF  25098.21599576  .00030250  00000-0  94778-3 0  9995
2 61764  97.3648 327.5439 0011023  60.7291 299.5052 15.32974470 67409
MORDOVIA-IOT (RS50S)
1 61765U 24199AG  25098.18158397  .00048838  00000-0  13469-2 0  9992
2 61765  97.3655 327.9330 0012110  47.0542 313.1716 15.36876342 67433
RUZAEVKA-390 (RS44S)
1 61766U 24199AH  25098.21483097  .00042688  00000-0  12113-2 0  9997
2 61766  97.3655 327.8851 0012173  47.0004 313.2258 15.36019030 67438
2024-199AJ (? AHMAT-2)
1 61767U 24199AJ  25098.18720880  .00048946  00000-0  13025-2 0  9994
2 61767  97.3644 328.0554 0011470  45.5693 314.6488 15.37991891 67442
HOD-HOD
1 61768U 24199AK  25098.20045400  .00023181  00000-0  76358-3 0  9999
2 61768  97.3652 327.4270 0009851  65.5607 294.6661 15.31435176 67406
KOSAR
1 61769U 24199AL  25098.16860172  .00025724  00000-0  83155-3 0  9994
2 61769  97.3649 327.4599 0009642  65.9500 294.2749 15.32020794 67401
SITRO-AIS-48
1 61771U 24199AN  25098.18171047  .00027704  00000-0  92310-3 0  9998
2 61771  97.3623 327.0833 0014945  68.3296 291.9535 15.30965815 67388
HYPERVIEW-1G (RS66S)
1 61772U 24199AP  25098.18842801  .00033341  00000-0  10637-2 0  9997
2 61772  97.3642 327.2711 0015903  61.2031 299.0805 15.32309797 67394
SITRO-AIS-47
1 61773U 24199AQ  25098.17958468  .00028574  00000-0  94890-3 0  9990
2 61773  97.3624 327.0893 0014969  68.5831 291.7006 15.31067103 67385
SITRO-AIS-46
1 61774U 24199AR  25098.17008032  .00029634  00000-0  97578-3 0  9998
2 61774  97.3620 327.0972 0015078  68.3322 291.9523 15.31332213 67388
CSTP-2.2
1 61775U 24199AS  25098.17774762  .00017396  00000-0  61831-3 0  9994
2 61775  97.3658 326.8506 0020199  61.4926 298.8345 15.28871313 67365
SITRO-AIS-40
1 61776U 24199AT  25098.17254282  .00029690  00000-0  97786-3 0  9993
2 61776  97.3621 327.0965 0015178  68.7517 291.5344 15.31323073 70536
CSTP-2.1
1 61777U 24199AU  25098.17723276  .00017551  00000-0  62505-3 0  9992
2 61777  97.3656 326.8482 0019889  62.0646 298.2605 15.28810506 67368
SITRO-AIS-39
1 61778U 24199AV  25098.19706541  .00026663  00000-0  89238-3 0  9997
2 61778  97.3622 327.0648 0015357  69.2506 291.0379 15.30823337 67389
ALTAIR (RS65S)
1 61779U 24199AW  25098.21037942  .00013462  00000-0  49920-3 0  9990
2 61779  97.3658 326.8110 0017528  62.2365 298.0649 15.27585307 70512
SITRO-AIS-37
1 61780U 24199AX  25098.19603626  .00028326  00000-0  94364-3 0  9994
2 61780  97.3631 327.0829 0015605  68.9349 291.3559 15.30957967 67380
ASRTU-1 (RS64S/BJ2CR)
1 61781U 24199AY  25098.16593860  .00012755  00000-0  47808-3 0  9990
2 61781  97.3652 326.7111 0017744  62.5828 297.7214 15.27241694 67356
TUSUR GO (RS78S)
1 61782U 24199AZ  25098.20189950  .00037995  00000-0  11905-2 0  9998
2 61782  97.3639 327.2540 0016593  60.5178 299.7717 15.32847548 67391
ZIMSAT-2 (Z2AS)
1 61783U 24199BA  25098.21539375  .00045507  00000-0  13143-2 0  9994
2 61783  97.3632 327.5292 0016556  59.9131 300.3752 15.35386270 70566
SAMSAT-IONOSPHERE (RS75S)
1 61784U 24199BB  25098.20750803  .00027351  00000-0  91482-3 0  9995
2 61784  97.3649 327.1032 0017123  61.3509 298.9451 15.30810620 70531
RTU MIREA-1 (RS51S)
1 61785U 24199BC  25098.19501774  .00029818  00000-0  98772-3 0  9994
2 61785  97.3647 327.1188 0016927  60.8910 299.4023 15.31109367 67383
SITRO-AIS-38
1 61786U 24199BD  25098.20269319  .00028090  00000-0  93969-3 0  9997
2 61786  97.3626 327.0640 0015618  69.8312 290.4607 15.30824092 67381
2024-199BE (? SWSU-60)
1 61787U 24199BE  25098.17112834  .00013751  00000-0  51519-3 0  9996
2 61787  97.3660 326.7085 0017919  62.2222 298.0831 15.27233263 70503
SITRO-AIS-45
1 61788U 24199BF  25098.19128830  .00028550  00000-0  95284-3 0  9992
2 61788  97.3618 327.0626 0015270  68.8410 291.4461 15.30902176 67367
SITRO-AIS-17
1 61789U 24199BG  25098.17430296  .00005633  00000-0  52277-3 0  9995
2 61789  97.3690 319.5916 0008345 100.3862 259.8300 14.94757769 66986
SITRO-AIS-18
1 61790U 24199BH  25098.17628276  .00005185  00000-0  48198-3 0  9993
2 61790  97.3686 319.5823 0008178  98.6750 261.5398 14.94728322 66989
LIGNOSAT
1 62296U 98067XC  25090.03349811  .03094512  11817-4  16357-2 0  9990
2 62296  51.6131 318.8850 0009413 255.6018 104.3956 16.19221691 17522
YOMOGI
1 62298U 98067XE  25089.55016338  .06907718  12136-4  12698-2 0  9995
2 62298  51.6023 320.8807 0008675 257.8161 102.1891 16.31399071 17459
POEM-4
1 62461U 24253C   25093.30048443  .04554513  11918-4  60834-3 0  9995
2 62461  55.2026 164.0888 0005190 323.3201 158.4302 16.34720740 14850
FRAM2
1 63427U 25066A   25094.61586442  .00010823  00000-0  12937-3 0  9996
2 63427  89.6759 318.3003 0074001  97.4684 319.2422 15.57450931   548
PLEIADES-ORPHEUS
1 98724C 24248D   24356.55167141  .00080857  00000+0  38463-2 0    06
2 98724  44.9996   0.5278 0003834  18.1359 115.7653 15.18415623    15
CROCUBE
1 98799U          24356.55243530  .00075084  00000+0  37160-2 0    04
2 98799  45.0011   0.5205 0005283 101.7631  36.3233 15.17035563    11
LASARSAT
1 98797U          24356.55243530  .00075084  00000+0  37160-2 0    02
2 98797  45.0011   0.5205 0005283 101.7631  36.3233 15.17035563    19
